COSMOS 2251 DEB         
1 34813U 93036ABC 17345.17678619  .00001770  00000-0  17391-2 0  9993
2 34813  73.9366  59.6873 0506164 272.6378  81.6902 13.34267090425608
